name,latitude,longitude,address,zip_code,website,neighborhood
10th & Wood,37.810344,-122.30266429999999,"945 Wood St, Oakland, CA 94607-1311",94607,http://10thandwood.com/,Oakland
4505 Burgers & BBQ,37.77620770000001,-122.4403973,"705 Divisadero St, San Francisco, CA 94117",94117,http://www.4505burgersandbbq.com/,Haight-Ashbury
7 Mile House Sports Bar & Grill,37.704322399999995,-122.4074595,"2800 Bayshore Blvd, Brisbane, CA 94005",94005,http://www.7milehouse.com/,Daly City
a Mano,37.7768993,-122.4240297,"450 Hayes St, San Francisco, CA 94102",94102,https://amanosf.com/,Hayes
Absinthe,37.776995,-122.42288500000001,"398 Hayes St, San Francisco, CA 94102",94102,http://www.absinthe.com/,Hayes
Acme Bar & Company,37.8676684,-122.29194220000001,"2115 San Pablo Ave, Berkeley, CA 94702",94702,http://www.acmebarandcompany.com/,Berkeley
After Hours,37.742,-122.49891000000001,"3044 Taraval St, San Francisco, CA 94116",94116,https://www.yelp.com/biz/after-hours-san-francisco-2,Parkside/Forest Hill
Aha Fresh,37.751459999999994,-122.43298999999999,"4007 24th St, San Francisco, CA 94114",94114,https://www.yelp.com/biz/aha-fresh-san-francisco,Castro/Noe Valley
Alamo Square Cafe,37.7760343,-122.4314537,"711 Fillmore Street, San Francisco, CA 94117",94117,https://www.facebook.com/AlamoSquareCafe/,Haight-Ashbury
Alioto's Waterside Cafe,37.8086312,-122.4160193,"7 Fishermans Wharf, San Francisco, CA 94133",94133,http://sfwatersidecafe.com/,North Beach/Chinatown
Amal’s Deli,37.770277,-122.445742,"1416 Haight St, San Francisco, CA 94117",94117,https://www.yelp.com/biz/amals-deli-san-francisco,Haight-Ashbury
Americano,37.7936245,-122.392733,"8 Mission St, San Francisco, CA 94105",94105,http://www.americanorestaurant.com/info.html,Embarcadero
Amitis Café ,37.77385,-122.44583,"800 Masonic Ave, San Francisco, CA 94117",94117,http://www.amitisdelisf.com/,Haight-Ashbury
Anchorage 5,37.869234000000006,-122.49936100000001,"475 Gate 5 Rd, Sausalito, CA 94965",94965,http://www.anchorage5.com,Sausalito/Marin County
Angelina's Deli Cafe,37.784224,-122.48198700000002,"6000 California St, San Francisco, CA 94121",94121,http://www.angelinascatering.net/Deli.php,Outer Richmond
Another Cafe,37.7901036,-122.41539850000001,"1191 Pine Street, San Francisco, CA 94109",94109,https://www.anothercafesf.com/,Polk/Russian Hill (Nob Hill)
Arguello,37.7976203,-122.4610243,"50 Moraga Ave, San Francisco, CA 94129",94129,https://www.arguellosf.com/,Presidio
Arizmendi Bakery - Inner Sunset,37.763396,-122.46651000000001,"1331 9th Ave, San Francisco, CA 94122",94122,https://www.arizmendibakery.com/,Sunset
As You Wish Frozen Yogurt,37.8906489,-122.2981717,"1205 Solano Ave, Albany, CA 94706-1724",94706,http://www.asyouwishfroyo.com/,Alameda
Ashley’s Cafe ,37.785106,-122.46553,"4454 California St, San Francisco, CA 94118",94118,https://www.yelp.com/biz/ashleys-cafe-san-francisco,Inner Richmond
B 44,37.791332399999995,-122.40376940000002,"44 Belden Place, San Francisco, CA 94104",94104,http://www.B44sf.com/,Chinatown
Baiano Pizzeria - Inner Sunset,37.763446,-122.46612900000001,"1330 9th Ave, San Francisco, CA 94122",94122,http://baianopizzeria.com/,Sunset
Baker Street Bistro,37.798273200000004,-122.44592250000001,"2953 Baker St, San Francisco, CA 94123",94123,http://www.bakerstreetbistro.com/,Marina
Balboa Cafe,37.904967,-122.547969,"38 Miller Ave, Mill Valley, CA 94941",94941,http://www.balboacafe.com/mill-valley/,Mill Valley
Bar at Kabuki,37.785465,-122.42865900000001,"1625 Post St, San Francisco, CA 94115",94115,https://www.jdvhotels.com/hotels/california/san-francisco/hotel-kabuki/dining/the-bar,Western Addition/Japantown
Barebottle Brewing Company,37.74,-122.40911000000001,"1525 Cortland Ave, San Francisco, CA 94110",94110,https://www.barebottle.com/,Inner Mission/Bernal Heights
Bartavelle,37.875037799999994,-122.29584569999999,"1603 San Pablo Ave, Berkeley, CA 94702-1317",94702,http://www.bartavellecafe.com/,Berkeley
Bayshore Taqueria,37.74313,-122.40563999999999,"300 Bayshore Blvd Suite A, San Francisco, CA 94124",94124,https://www.yelp.com/biz/bayshore-taqueria-san-francisco,Bayview/Hunters Point
Beachside Coffee Bar & Kitchen,37.760462,-122.508246,"4300 Judah St, San Francisco, CA 94122",94122,https://www.yelp.com/biz/beachside-coffee-bar-and-kitchen-san-francisco,Sunset
Bean Bag Coffee House,37.7749885,-122.43789699999999,"601 Divisadero St, San Francisco, CA 94117",94117,http://beanbagcoffeehouse.com/,Haight-Ashbury
Beep’s Burgers,37.723166,-122.45390900000001,"1051 Ocean Ave, San Francisco, CA 94112",94112,https://www.beepsburgers.com/,Ingelside/Excelsior/Crocker-Amazon
Belden Taverna,37.791421,-122.403659,"52 Belden Pl, San Francisco, CA 94104",94104,http://www.btaverna.com/,Chinatown
Ben Tre Vietnamese Homestyle Cuisine,37.6546878,-122.40925,"219 Grand Ave, South San Francisco, CA 94080",94080,http://bentrerestaurant.com/,Paradise Valley/South SF
Bender's Bar & Grill,37.7601822,-122.41717709999999,"806 S Van Ness Ave, San Francisco, CA 94110",94110,http://www.bendersbar.com,Inner Mission/Bernal Heights
Beretta,37.7538422,-122.4206999,"1199 Valencia St., San Francisco, CA 94110",94110,http://www.berettasf.com/,Inner Mission/Bernal Heights
Bernal Star ,37.738991999999996,-122.41741,"410 Cortland Ave, San Francisco, CA 94110",94110,https://www.bernalstar.com/,Inner Mission/Bernal Heights
Bernie's,37.7514996,-122.4310946,"3966 24th St, San Francisco, CA 94114",94114,https://www.facebook.com/BerniesCoffee,Castro/Noe Valley
Bette's Oceanview Diner,37.8698389,-122.3004591,"1807 4th St, Berkeley, CA 94710",94710,http://www.bettesdiner.com/,Alameda
Birba ,37.777831,-122.424177,"458 Grove St, San Francisco, CA 94102",94102,http://www.birbawine.com/,Hayes
Bi-Rite Creamery,37.761528999999996,-122.425799,"3692 18th St, San Francisco, CA 94110",94110,http://biritecreamery.com/,Inner Mission/Bernal Heights
Bite,37.788493200000005,-122.41771709999999,"912 Sutter St, San Francisco, CA 94109",94109,http://bitesandwiches.com/home.html,Polk/Russian Hill (Nob Hill)
BiteUnite ,37.763324,-122.41750800000001,"600 S Van Ness Ave, San Francisco, CA 94110",94110,https://www.biteunite.com/,Inner Mission/Bernal Heights
Blackwood ,37.800709000000005,-122.43885," 2150 Chestnut St, San Francisco, CA 94123",94123,https://www.blackwoodsf.com/,Marina
Bloodhound,37.7758151,-122.4088179,"1145 Folsom St, San Francisco, CA 94103",94103,http://www.bloodhoundsf.com,South of Market
Blue Barn Gourmet,37.800487,-122.43819099999999,"2105 Chestnut St, San Francisco, CA 94123",94123,http://www.bluebarngourmet.com/,Marina
Blue Line Pizza,37.6994017,-122.4822694,"511 Westlake Center, Daly City, CA 94105",94105,http://bluelinepizza.com/,Embarcadero
Bocadillos,37.795811,-122.40315700000001,"710 Montgomery St, San Francisco, CA 94111",94111,http://www.bocasf.com/site/start.html,Embarcadero
Bon Voyage,37.763612,-122.422059,"584 Valencia St, San Francisco, CA 94110",94110,http://bonvoyagebar.com/,Inner Mission/Bernal Heights
Boulange de Cole Valley,37.764864700000004,-122.4497521,"1000 Cole St, San Francisco, CA 94117",94117,http://laboulangebakery.com/,Haight-Ashbury
BrainWash Cafe Laundromat,37.77667329999999,-122.4079459,"1111 Folsom St, San Francisco, CA 94103",94103,http://www.brainwash.com/,South of Market
Brass Tacks,37.7768629,-122.4243929,"488 Hayes St, San Francisco, CA 94102",94102,http://brasstackssf.com/,Hayes
Brenda’s Meat & Three,37.77815,-122.4388," 919 Divisadero St, San Francisco, CA 94115",94115,https://brendasmeatandthree.com/,Western Addition/Japantown
Bridgeway Cafew,37.8548311,-122.47915390000001,"633 Bridgeway, Sausalito, CA 94965",94965,http://www.bridgeway-cafe.4t.com/,Sausalito/Marin County
Brindisi Cucina di Mare,37.7916636,-122.4038396,"88 Belden Pl, San Francisco, CA 94104",94104,http://www.belden-place.com/brindisicucinadimare/,Chinatown
Buckhorn Grill,37.833407,-122.29382009999999,"5614 Bay St #238, Emeryville, CA 94608-2409",94608,https://buckhorngrill.com/,Emeryville
Buffalo Wild Wings,37.6730038,-122.47290729999999,"5 Serramonte Center, Daly City, CA 94015-2345",94015,https://www.buffalowildwings.com/,Daly City
Burgermeister,37.698382,-122.48356650000001,"507 Westlake Center, Daly City, CA 94014",94014,http://www.burgermeistersf.com/,Daly City
Bus Stop,37.7976083,-122.4306986,"1901 Union St, San Francisco, CA 94123",94123,http://www.busstop-sf.com/,Marina
Cafe Alma,37.73205,-122.37539,"888 Innes Ave, San Francisco, CA 94124",94124,https://www.cafealmasf.com/,Bayview/Hunters Point
Cafe Bastille,37.791151,-122.403599,"22 Belden Pl, San Francisco, CA 94104",94104,http://www.cafebastille.com/,Chinatown
Cafe De La Presse,37.790471999999994,-122.405473,"352 Grant Ave, San Francisco, CA 94108",94108,http://www.cafedelapresse.com/,Chinatown
Cafe du Soleil,37.771408,-122.430125,"200 Fillmore St, San Francisco, CA 94117",94117,http://www.cafedusoleilsoma.com,Haight-Ashbury
Cafe Flore,37.764651,-122.432924,"2298 Market St, San Francisco, CA 94114",94114,http://cafeflore.com/,Castro/Noe Valley
Cafe Leila,37.872508,-122.293646,"1724 San Pablo Ave, Berkeley, CA 94702",94702,http://cafeleila.com/,Berkeley
Cafe M,37.870475,-122.299829,"1799 4th St, Berkeley, CA 94710",94710,http://www.cafemberkeley.com/,Alameda
Cafe Pescatore,37.8061336,-122.4137256,"2455 Mason St, San Francisco, CA 94133",94133,http://www.cafepescatore.com/,North Beach/Chinatown
Cafe Reverie,37.766135999999996,-122.44972299999999,"848 Cole St, San Francisco, CA 94117",94117,https://www.facebook.com/Reverie-Cafe-446696380600,Haight-Ashbury
Cafe St. Jorge ,37.74165,-122.42260700000001,"3438 Mission St, San Francisco, CA 94110",94110,http://www.cafestjorge.com/,Inner Mission/Bernal Heights
Cafe Tiramisu,37.791205,-122.40361000000001,"28 Belden Pl, San Francisco, CA 94104",94104,http://www.cafetiramisu.com,Chinatown
Cafeina,37.890781200000006,-122.29033570000001,"1389 Solano Ave, Albany, CA 94706",94706,http://www.cafecafeina.com/,Alameda
Caffe Sapore,37.802884000000006,-122.414549,"790 Lombard St, San Francisco, CA 94133",94133,http://www.caffesapore.com,North Beach/Chinatown
Canela Bistro & Wine Bar,37.764998999999996,-122.432524,"2272 Market St, San Francisco, CA 94114",94114,http://canelasf.com/,Castro/Noe Valley
Carmel Pizza Company,37.80748,-122.41718,"2826 Jones Street, San Francisco, CA 94133",94133,https://www.carmelpizzaco.com/,North Beach/Chinatown
Cassava ,37.77561,-122.49651999999999,"3519 Balboa St, San Francisco, CA 94121",94121,https://www.cassavasf.com/,Outer Richmond
Causwells ,37.800251,-122.442001,"2346 Chestnut St, San Francisco, CA 94123",94123,https://www.causwells.com/,Marina
Central Coffee Tea & Spice,37.774409000000006,-122.444249,"1696 Hayes St, San Francisco, CA 94117",94117,http://centralcoffeesf.com/,Haight-Ashbury
Cheese Plus,37.7952299,-122.42183200000001,"2001 Polk St, San Francisco, CA 94109",94109,http://www.cheeseplus.com/,Polk/Russian Hill (Nob Hill)
Chez Maman - East,37.762445,-122.396745,"1401 18th St, San Francisco, CA 94107",94107,http://www.chezmamansf.com/,Potrero Hill
Chez Maman - West,37.77708,-122.42318," 401 Gough St, San Francisco, CA 94102",94102,http://www.chezmamansf.com/,Hayes
Chicano Nuevo,37.746817,-122.419467,"3158 Mission St, San Francisco, CA 94110",94110,https://www.yelp.com/biz/chicano-nuevo-san-francisco,Inner Mission/Bernal Heights
Chile Lindo,37.765374200000004,-122.42058370000001,"2944 16th St, San Francisco, CA 94103",94103,http://www.chilelindo.com/contact-us/,South of Market
Chipotle Mexican Grill,37.899193200000006,-122.3044544,"9901 San Pablo Ave, El Cerrito, CA 94530-3924",94530,https://www.chipotle.com/,Richmond (City)
Chloe’s Cafe,37.748639000000004,-122.42686499999999,"1399 Church St, San Francisco, CA 94114",94114,https://chloessf.com/,Castro/Noe Valley
Chouquet’s,37.791707,-122.434611,"2500 Washington St, San Francisco, CA 94115",94115,https://www.chouquets.com/,Western Addition/Japantown
Christophers Nothing Fancy Cafe,37.885665,-122.297102,"1019 San Pablo Ave, Albany, CA 94706",94706,http://christophersnothingfancy.com,Alameda
Churchill,37.7678879,-122.42918390000001,"198 Church St, San Francisco, CA 94114",94114,http://churchillsf.com,Castro/Noe Valley
Cibo ,37.859091,-122.4853465,"1201 Bridgeway, Sausalito, CA 94965",94965,http://www.cibosausalito.com/,Sausalito/Marin County
Cinderella Bakery & Cafe,37.777392,-122.46368700000001,"436 Balboa St, San Francisco, CA 94118",94118,http://cinderellabakery.com/,Inner Richmond
Cinecitta Ristorante & Bar,37.8002751,-122.4104372,"663 Union St, San Francisco, CA 94133",94133,http://www.cinecittarestaurant.com/,North Beach/Chinatown
Clare's Deli,37.7630573,-122.42436770000002,"3505 b 17 th St, San Francisco, CA 94110",94110,http://www.turnerskitchensf.com,Inner Mission/Bernal Heights
Colombo's Delicatessen,37.6497623,-122.4941977,"484 Manor Plaza, Pacifica, CA 94044-1839",94044,http://www.colombosdeli.net/sandwich-menu,Pacifica
Counter Offer,37.760253999999996,-122.41723,"800 S Van Ness Ave, San Francisco, CA 94110",94110,https://www.yelp.com/biz/counter-offer-san-francisco,Inner Mission/Bernal Heights
Cracked & Battered,37.7626,-122.397,"1434 18th St, San Francisco, CA 94107",94107,https://www.yelp.com/biz/cracked-and-battered-san-francisco,Potrero Hill
Crepevine - Inner Sunset,37.764359000000006,-122.464679,"624 Irving St, San Francisco, CA 94122",94122,http://www.crepevine.com/,Sunset
Cugini Restaurant,37.89103660000001,-122.2850378,"1556 Solano Ave, Berkeley, CA 94707",94707,http://www.cuginirestaurant.com/,Berkeley
Cultivar,37.799771899999996,-122.4445997,"2379 Chestnut St, San Francisco, CA 94123",94123,https://www.cultivarsf.com/,Marina
Cups and Cakes Bakery,37.7720218,-122.40923959999999,"451 9th St, San Francisco, CA 94103",94103,http://cupsandcakesbakery.com/,South of Market
Danny Coyle's,37.771756700000005,-122.4333395,"668 Haight St, San Francisco, CA 94117",94117,http://www.dannycoyles.com/,Haight-Ashbury
Daphne's Greek Cafe,37.698382,-122.48356650000001,"344 Westlake Center, Daly City, CA 94015",94015,http://www.daphnesgreekcafe.com/,Daly City
Delarosa,37.8003028,-122.43912490000001,"2175 Chestnut St., San Francisco, CA 94123",94123,https://www.delarosasf.com/,Marina
Devil's Teeth Baking Company,37.7531787,-122.50501170000001,"3876 Noriega St, San Francisco, CA 94122",94122,http://www.devilsteethbakingcompany.com/,Sunset
Dinosaurs ,37.764571999999994,-122.43205800000001,"2275 Market St, San Francisco, CA 94114",94114,http://eatdinosaurs.com/,Castro/Noe Valley
Doc's Clock ,37.761829,-122.419357,"2417 Mission St, San Francisco, CA 94110",94110,http://www.docsclock.com/,Inner Mission/Bernal Heights
Dojo Dog,37.866560799999995,-122.30157779999999,"2031 Fourth St, Berkeley, CA 94710",94710,http://eatdojodog.com/,Alameda
Dolores Park Cafe,37.76132,-122.425711,"501 Dolores St, San Francisco, CA 94110",94110,http://www.doloresparkcafe.com/,Inner Mission/Bernal Heights
Dos Pinas,37.7667136,-122.4027449,"251 Rhode Island St, San Francisco, CA 94103",94103,http://www.dospinas.com/,South of Market
Duboce Park Cafe,37.7693295,-122.4313807,"2 Sanchez St, San Francisco, CA 94110",94110,http://duboceparkcafe.com/,Inner Mission/Bernal Heights
Dumpling Time ,37.769859000000004,-122.402229,"11 Division St, San Francisco, CA 94103",94103,https://www.dumplingtimesf.com/,South of Market
Dynamo Donut,37.7531076,-122.40984830000001,"2760 24th St, San Francisco, CA 94110",94110,https://dynamodonut.com/,Inner Mission/Bernal Heights
Eats,37.7832911,-122.46221090000002,"50 Clement St, San Francisco, CA 94118",94118,https://www.eatsrestaurantsf.com/,Inner Richmond
El Faro's Mexican Food,37.646449100000005,-122.43070900000001,"435 El Camino Real, South San Francisco, CA 94080",94080,http://www.kqzyfj.com/click-2591786-12525324?url=https%3A%2F%2Fwww.tripadvisor.com%2FRestaurant_Review-g33116-d895590-Reviews-El_Faro_s_Mexican_Food-South_San_Francisco_California.html,Paradise Valley/South SF
El Mercado Urbano at La Urbana,37.7757598,-122.43822800000001,"661 Division, San Francisco, CA 94117",94117,http://www.laurbanasf.com/,Haight-Ashbury
El Metate,37.7556903,-122.40945490000001,"2406 Bryant St, San Francisco, CA 94110",94110,http://www.elmetatesf.com,Inner Mission/Bernal Heights
El Mono,37.905377200000004,-122.3067419,"10264 San Pablo Ave, El Cerrito, CA 94530",94530,https://www.elmonofresh.com/,Richmond (City)
El Rio,37.746815000000005,-122.419463,"3158 Mission St, San Francisco, CA 94110",94110,http://www.elriosf.com/,Inner Mission/Bernal Heights
Elixir,37.765134,-122.42245700000001,"3200 16th St, San Francisco, CA 94103",94103,http://www.elixirsf.com/,South of Market
Emporio Rulli Caffe ,37.788003499999995,-122.40669720000001,"225 Stockton St, San Francisco, CA 94108",94108,http://www.rulli.com/,Chinatown
Equator Coffees & Teas,37.9059623,-122.5506118,"2 Miller Ave, Mill Valley, CA 94941",94941,https://www.equatorcoffees.com/miller/,Mill Valley
Estrada,37.687149299999994,-122.46785,"7440 Mission St, Daly City, CA 94014",94014,http://estradasrestaurant1917.com/,Daly City
Etcetera Wine Bar,37.76021,-122.42138,"795 Valencia St,  San Francisco, CA 94110",94110,https://etceterawinebar.com/,Inner Mission/Bernal Heights
Everett & Jones Barbecue,37.86967620000001,-122.2942331,"1955 San Pablo Ave, Berkeley, CA 94702-1611",94702,http://eandjbbq.com/,Berkeley
Extreme Pizza,37.8972908,-122.5383875,"393 Miller Ave, Mill Valley, CA 94941",94941,http://millvalley.extremepizza.com/zgrid/proc/site/sitep.jsp,Mill Valley
F3 - Fast Food Francais,37.858275299999995,-122.4851216,"39 Caledonia St, Sausalito, CA 94965",94965,http://www.eatf3.com/home.html,Sausalito/Marin County
Fable ,37.75996,-122.435119,"558 Castro St, San Francisco, CA 94114",94114,https://fablesf.com/,Castro/Noe Valley
Farley Bar,37.8351721,-122.4796649,"601 Murray Cir, Sausalito, CA 94966",94966,http://www.cavallopoint.com/dine.html#farley-bar,Tiburon
Farley's,37.762452,-122.39596599999999,"1315 18th St, San Francisco, CA 94107",94107,http://www.farleyscoffee.com/,Potrero Hill
Farm : Table,37.78783,-122.41433,"754 Post St, San Francisco, CA 94109",94109,https://www.farmtablesf.com/,Polk/Russian Hill (Nob Hill)
Fat Angel,37.783491,-122.43327099999999,"1740 O'Farrell St, San Francisco, CA 94115",94115,http://www.fatangelsf.com/,Western Addition/Japantown
Fior d'Italia,37.804266999999996,-122.413604,"2237 Mason St, San Francisco, CA 94133",94133,http://www.fior.com/,North Beach/Chinatown
Fish,37.868485,-122.497677,"350 Harbor Dr, Sausalito, CA 94965",94965,http://www.331fish.com/,Sausalito/Marin County
Five Guys,37.6448772,-122.4551337,"2278 Westborough Blvd, South San Francisco, CA 94080-5437",94080,http://www.fiveguys.com/,Paradise Valley/South SF
Fog Lifter Cafe,37.725164,-122.46246399999998,"1901 Ocean Ave, San Francisco, CA 94127",94127,https://www.yelp.com/biz/fog-lifter-cafe-san-francisco,St. Francis Wood/Miraloma/West Portal
Fonda Solana,37.8909284,-122.28745659999998,"1501A Solano Ave, Albany, CA 94707",94707,http://www.fondasolano.com/,Berkeley
Frantoio Ristorante,37.8817115,-122.5191481,"152 Shoreline Hwy, Mill Valley, CA 94941",94941,http://www.frantoio.com/,Mill Valley
Gabriel and Daniel's Mexican Grill,37.5901165,-122.35503419999999,"250 Anza Blvd, Burlingame, CA 94010-1939",94010,http://www.gabrielydaniel.com/,Burlingame
Garden House Cafe,37.781411,-122.49268500000001,"3117 Clement St, San Francisco, CA 94121",94121,https://www.yelp.com/biz/garden-house-cafe-san-francisco,Outer Richmond
Gestalt ,37.764691,-122.42330600000001,"3159 16th St, San Francisco, CA 94103",94103,https://gestaltsf.business.site/,South of Market
Globe,37.797764,-122.400784,"290 Pacific Ave, San Francisco, CA 94111",94111,http://www.globerestaurant.com/,Embarcadero
Good Earth Natural Foods,37.8808434,-122.52783829999998,"201 Flamingo Rd, Mill Valley, CA 94941-3603",94941,http://www.genatural.com/,Mill Valley
Gott's Roadside,37.7958338,-122.393782,"1 Ferry Building Ste 6, San Francisco, CA 94111",94111,https://www.gotts.com/,Embarcadero
Gracias Madre,37.761509999999994,-122.41891000000001,"2211 Mission St, San Francisco, CA 94110",94110,https://www.gracias-madre.com/,Inner Mission/Bernal Heights
Halal Shop,37.721016,-122.477398,"1650 Holloway Ave, San Francisco, CA 94132",94132,https://www.yelp.com/biz/halal-shop-san-francisco-2,Lake Merced
Handy Deli,37.763369,-122.47750800000001,"1815 Irving St, San Francisco, CA 94122",94122,http://www.handydelisf.com/,Sunset
Hayes Pizza,37.773241,-122.450546,"2077 Hayes St, San Francisco, CA 94117",94117,https://www.katanipizza.com/,Haight-Ashbury
Highwire Coffee Roasters,37.868430700000005,-122.29375300000001,"2049 San Pablo Ave, Berkeley, CA 94702-1613",94702,http://www.highwirecoffee.com/pages/san-pablo,Berkeley
Hinodeya Ramen Bar,37.786187,-122.430168,"1737 Buchanan St, San Francisco, CA 94115",94115,http://hinodeyaramen.com/,Western Addition/Japantown
HITW Coffee,37.800757399999995,-122.410312,"524 Union St, San Francisco, CA 94133",94133,https://hitwcoffee.com/,North Beach/Chinatown
Hobson's Choice,37.7697899,-122.44859280000001,"1601 Haight St, San Francisco, CA 94117",94117,http://www.hobsonschoice.com/,Haight-Ashbury
Holy Water,37.739413,-122.4182559,"309 Cortland Ave, San Francisco, CA 94110",94110,http://holywatersf.com,Inner Mission/Bernal Heights
Hook Fish Co,37.762398,-122.5069134,"4542 Irving St, San Francisco, CA 94122",94122,https://www.hookfishco.com/,Sunset
Hops & Hominy,37.789188,-122.40586100000002,"1 Tillman Pl, San Francisco, CA 94108",94108,http://www.hopsandhominy.com/,Chinatown
Horsefeather,37.774502000000005,-122.43736299999999,"528 Divisadero St, San Francisco, CA 94117",94117,http://www.horsefeatherbar.com/,Haight-Ashbury
Hotel Utah Saloon,37.7793024,-122.39816640000001,"500 4th St, San Francisco, CA 94103",94103,http://www.hotelutah.com,South of Market
Ike’s Japanese Kitchen,37.783088,-122.42048600000001,"800 Van Ness Ave, San Francisco, CA 94109",94109,https://www.ikeskitchensf.com/,Polk/Russian Hill (Nob Hill)
Il Fornaio,37.579803000000005,-122.347247,"327 Lorton Ave, Burlingame, CA 94010",94010,http://www.ilfornaio.com/?page=138&restaurant_id=3144,Burlingame
Il Piccolo Cafe Specialita Italiane,37.85518,-122.479046,"660 Bridgeway, Sausalito, CA 94965",94965,http://www.piccolosausalito.com/,Sausalito/Marin County
In-N-Out Burger,37.807925,-122.4180489,"333 Jefferson St, San Francisco, CA 94133",94133,http://www.in-n-out.com/,North Beach/Chinatown
InoVino ,37.765862,-122.45037099999999,"108-B Carl St, San Francisco, CA 94117",94117,https://www.inovinosanfrancisco.com/,Haight-Ashbury
International Smoke,37.790386600000005,-122.39834180000001,"301 Mission St, San Francisco, CA 94105",94105,https://internationalsmoke.com/,Embarcadero
Iron Cactus,37.7772718,-122.39517830000001,"683 4th St, San Francisco, CA 94107",94107,http://ironcactussf.com/,Potrero Hill
James and the Giant Cupcake,37.8466211,-122.2868123,"6326 San Pablo Ave, Oakland, CA 94608-1232",94608,http://www.jamesandthegiantcupcake.com/,Emeryville
Java Beach Cafe,37.760451,-122.508931,"1396 La Playa St, San Francisco, CA 94122",94122,http://www.javabeachsf.com/contact/,Sunset
Jenny’s Burgers,37.765299,-122.466574,"1233 9th Ave, San Francisco, CA 94122",94122,https://www.yelp.com/biz/jenny-s-burgers-san-francisco,Sunset
Joe's Taco Lounge & Salsaria,37.897052,-122.53719099999999,"382 Miller Ave, Mill Valley, CA 94941",94941,http://www.joestacolounge.com,Mill Valley
Judahlicious ,37.760664,-122.50399999999999,"3906 Judah St, San Francisco, CA 94122",94122,https://judahlicious.com/,Sunset
KAIYŌ,37.797995,-122.429644,"1838 Union St, San Francisco, CA 94123",94123,https://kaiyosf.com/,Marina
Kara's Cupcakes,37.799755,-122.44138400000001,"3249 Scott St, San Francisco, CA 94123",94123,http://www.karascupcakes.com/,Marina
Karma Cafe,37.77355,-122.44781,"1901 Hayes St, San Francisco, CA 94117",94117,https://www.karmacafesf.net/,Haight-Ashbury
Kennedy's Irish Pub & Curry House,37.804167,-122.41528100000001,"1040 Columbus Ave, San Francisco, CA 94133",94133,http://www.kennedyscurry.com/,North Beach/Chinatown
Kitchen Story,37.7641759,-122.430668,"3499 16th St, San Francisco, CA 94114",94114,http://www.kitchenstorysf.com/,Castro/Noe Valley
Kitti's Place,37.8696016,-122.50591100000001,"3001 Bridgeway, Sausalito, CA 94965-1408",94965,http://www.kittisplace.com/,Sausalito/Marin County
KoJa Kitchen - Inner Richmond,37.78308,-122.46288999999999,"343 Clement St, San Francisco, CA 94118",94118,http://www.kojakitchen.com/,Inner Richmond
Krispy Kreme Doughnuts,37.6887755,-122.4737898,"1575 Sullivan Ave, Daly City, CA 94015-1936",94015,https://www.krispykreme.com,Daly City
La Boulangerie  - Hayes Valley,37.7766864,-122.4246696,"500 Hayes St, San Francisco, CA 94102",94102,http://www.laboulangeriesf.com/locations-1/,Hayes
La Boulangerie - Cow Hollow,37.797445,-122.430844,"1909 Union St, San Francisco, CA 94123",94123,http://www.laboulangeriesf.com/locations-1/,Marina
La Mediterranee Fillmore Restaurant and Catering,37.7900912,-122.43405849999999,"2210 Fillmore St, San Francisco, CA 94115",94115,https://cafelamedfillmore.com/,Western Addition/Japantown
La Mediterranee Noe,37.764486,-122.433415,"288 Noe St, San Francisco, CA 94114",94114,https://lamednoe.com/,Castro/Noe Valley
Lama Bean's,37.879461600000006,-122.3013779,"1290 6th St, Berkeley, CA 94710",94710,http://lamabeanscafe.com/,Alameda
Lappert's Ice Cream,37.855630100000006,-122.48176219999999,"689 Bridgeway, Sausalito, CA 94965-2218",94965,http://www.lapperts.com/,Sausalito/Marin County
Le Cafe du Soleil,37.771355,-122.43013400000001,"200 Fillmore St, San Francisco, CA 94117",94117,http://www.cafedusoleilsoma.com/,Haight-Ashbury
Le Garage,37.8637879,-122.490974,"85 Liberty Ship Way, Sausalito, CA 94965",94965,http://www.legaragebistrosausalito.com/,Sausalito/Marin County
Limoncello ,37.787484,-122.42363799999998,"1400 Sutter St, San Francisco, CA 94109",94109,http://www.limoncellosf.com/,Polk/Russian Hill (Nob Hill)
Little Skillet ,37.778828000000004,-122.39406299999999,"360 Ritch St, San Francisco, CA 94107",94107,http://www.littleskilletsf.com/,Potrero Hill
Lorenzo’s of New York Pizza,37.79625,-122.42201000000001,"2109 Polk St, San Francisco, CA 94109",94109,https://www.yelp.com/biz/lorenzos-of-new-york-pizza-san-francisco,Polk/Russian Hill (Nob Hill)
Louie's Deli Cafe,37.868606,-122.5039707,"2656 Bridgeway, Sausalito, CA 94965-1400",94965,http://www.louiesdelisausalito.com/,Sausalito/Marin County
Lou's Fish Shack,37.8080301,-122.41743249999999,"300 Jefferson St, San Francisco, CA 94133",94133,http://www.louspier47.com/restaurant.html,North Beach/Chinatown
Lucky 13,37.767148999999996,-122.42993999999999,"2140 Market St, San Francisco, CA 94114",94114,https://www.facebook.com/Lucky13SF,Castro/Noe Valley
Magnolia Dogpatch,37.75775,-122.38812,"2505 3rd St, San Francisco, CA 94107",94107,https://magnoliabrewing.com/dogpatch/,Potrero Hill
Mai Mai Sandwich & Bakery,37.782962,-122.467455,"750 Clement St, San Francisco, CA 94118",94118,https://www.yelp.com/biz/mai-mai-sandwich-and-bakery-san-francisco-2,Inner Richmond
MaMo,37.803470000000004,-122.43335,"3659 Buchanan St, San Francisco, CA 94123",94123,https://www.mamosf.com/,Marina
Manhattan Bagel,37.870475899999995,-122.3026428,"1789 Fourth St, Berkeley, CA 94710-1710",94710,https://www.manhattanbagel.com/,Alameda
Manitas Cafe,37.773515,-122.45069099999999,"2078 Hayes St, San Francisco, CA 94117",94117,https://www.manitascafe.com/,Haight-Ashbury
Mario's Bohemian Cigar Store Cafe,37.800228999999995,-122.40981599999999,"566 Columbus Ave, San Francisco, CA 94133",94133,https://www.facebook.com/pages/Marios-Bohemian-Cigar-Store-Cafe/115680501780080,North Beach/Chinatown
Mel's Drive-In - Cow Hollow,37.799448,-122.43708600000001,"2165 Lombard St, San Francisco, CA 94123",94123,http://www.melsdrive-in.com/,Marina
Mel's Drive-In - Richmond,37.781184,-122.454884,"3355 Geary Blvd, San Francisco, CA 94118",94118,http://www.melsdrive-in.com/,Inner Richmond
Mersea ,37.82263,-122.37611000000001,"699 Avenue Of The Palms, San Francisco, CA 94130",94130,http://www.mersea.restaurant/,Treasure Island
Mini Bar,37.777378999999996,-122.43861499999998,"837 Divisadero St, San Francisco, CA 94117",94117,https://www.facebook.com/Mini-Bar-Sf-111089988914296,Haight-Ashbury
Mint Leaf Restaurant,37.853138200000004,-122.29171509999999,"2865 Seventh St, Berkeley, CA 94710-2704",94710,http://www.mintleafvr.com/,Alameda
Mission Picnic,37.757206,-122.420924,"983 Valencia St, San Francisco, CA 94110",94110,https://www.missionpicnic.com/,Inner Mission/Bernal Heights
Mission Rock Resort,37.765370000000004,-122.38735,"817 Terry A Francois Blvd, San Francisco, CA 94158",94158,https://www.missionrockresort.com/,Mission Bay
Mojo Bicycle Cafe,37.775521000000005,-122.438244,"639 Divisadero St, San Francisco, CA 94117",94117,http://www.mojobicyclecafe.com/,Haight-Ashbury
Molotov's,37.772177899999996,-122.43178700000001,"582 Haight St, San Francisco, CA 94117",94117,https://www.facebook.com/pages/Molotovs/111613195526956,Haight-Ashbury
MoMo's Restaurant,37.7798453,-122.39022279999999,"760 2nd St, San Francisco, CA 94107",94107,http://sfmomos.com,Potrero Hill
Mom's Tofu House,37.6548255,-122.4091842,"217 Grand Ave, South San Francisco, CA 94080",94080,https://www.tripadvisor.com/Restaurant_Review-g33116-d3655500-Reviews-Mom_s_Tofu_House-South_San_Francisco_California.html,Paradise Valley/South SF
Monk's Kettle,37.764720600000004,-122.42298600000001,"3141 16th St, San Francisco, CA 94103",94103,https://monkskettle.com/,South of Market
Monterey Pizza & Asian Zap,37.731269,-122.448718,"599 Monterey Blvd, San Francisco, CA 94127",94127,https://montereypizzaandasianzap.com/,St. Francis Wood/Miraloma/West Portal
Murio's Trophy Room,37.769146899999996,-122.4521865,"1811 Haight St, San Francisco, CA 94117",94117,https://www.tripadvisor.com/Attraction_Review-g60713-d126667-Reviews-Murio_s_Trophy_Room-San_Francisco_California.html,Haight-Ashbury
Murphy's Pub,37.790092,-122.40413500000001,"217 Kearny St, San Francisco, CA 94108",94108,http://www.murphyspubsf.net,Chinatown
Murray Circle at Cavallo Point,37.835420899999995,-122.479606,"602 Murray Cir, Sausalito, CA 94965",94965,http://www.murraycircle.com/,Sausalito/Marin County
Mymy ,37.790965,-122.419257,"1500 California St, San Francisco, CA 94109",94109,https://www.yelp.com/biz/mymy-san-francisco-3,Polk/Russian Hill (Nob Hill)
Myriad Gastropub,37.757290000000005,-122.41878,"2491 Mission St, San Francisco, CA 94110",94110,https://www.myriadsf.com/,Inner Mission/Bernal Heights
Na Ya Dessert Cafe,37.780746,-122.47682900000001,"5338 Geary Blvd, San Francisco, CA 94121",94121,https://www.yelp.com/biz/na-ya-dessert-cafe-san-francisco-3,Outer Richmond
Napa Valley Burger Company,37.855457,-122.47896599999999,"670 Bridgeway, Sausalito, CA 94965",94965,http://www.napavalleyburgercompany.com/,Sausalito/Marin County
New England Lobster Company,37.60273370000001,-122.3748291,"824 Cowan Rd, Burlingame, CA 94010",94010,http://www.newenglandlobster.net/,Burlingame
New Morning Cafe,37.8738475,-122.45645729999998,"1696 Tiburon Blvd, Tiburon, CA 94920",94920,https://www.facebook.com/pages/The-New-Morning-Cafe/114686948555665,Tiburon
Nob Hill Cafe,37.793264,-122.412626,"1152 Taylor St, San Francisco, CA 94108",94108,http://nobhillcafe.com/,Chinatown
Noe’s Cantina,37.751833000000005,-122.427194," 1199 Church St, San Francisco, CA 94114",94114,https://www.yelp.com/biz/noes-cantina-san-francisco,Castro/Noe Valley
Noeteca Wine Bar ,37.744562,-122.42414099999999,"1551 Dolores St, San Francisco, CA 94110",94110,https://www.yelp.com/biz/noeteca-cafe-wine-bar-san-francisco,Inner Mission/Bernal Heights
Nopalito - Inner Sunset,37.766109,-122.46643799999998,"1224 9th Ave, San Francisco, CA 94122",94122,http://www.nopalitosf.com/,Sunset
Nopalito - Lower Haight,37.7729911,-122.43908770000002,"306 Broderick St, San Francisco, CA 94117",94117,http://www.nopalitosf.com/,Haight-Ashbury
North Beach Restaurant,37.799797,-122.40879699999999,"1512 Stockton St, San Francisco, CA 94133",94133,http://www.northbeachrestaurant.com/,North Beach/Chinatown
North Beach Restaurant ,37.799782,-122.40911899999999,"1512 Stockton St, San Francisco, CA 94133",94133,https://www.northbeachrestaurant.com/,North Beach/Chinatown
Nourish Cafe,37.7852066,-122.46475749999999,"189 6th Ave, San Francisco, CA 94118",94118,https://www.nourishcafesf.com/,Inner Richmond
NOVY Restaurant,37.751558200000005,-122.4321395,"4000 24th St, San Francisco, CA 94114",94114,https://www.novysf.com/,Castro/Noe Valley
Off the Grid 5M,37.782115000000005,-122.40623400000001,"410 Minna St, San Francisco, CA 94103",94103,https://offthegrid.com/,South of Market
Off the Grid Alameda,37.757267,-122.25198799999998,"535 S Shore Center, Alameda, CA 94501",94501,https://offthegrid.com/,Alameda
Off the Grid City Center ,37.779492,122.41761799999999,"355 McAllister St, San Francisco, CA 94102",94102,https://offthegrid.com/,Hayes
Off the Grid Emeryville,37.831419,-122.284752,"Park Ave & Haven St, Emeryville, CA 94608",94608,https://offthegrid.com/,Emeryville
Off the Grid Emeryville Lunch Pop-Up,37.840986,-122.29305,"5959 Shellmound St, Emeryville, CA 94608",94608,https://offthegrid.com/,Emeryville
Off the Grid Emeryville Public Market,37.840981,-122.29311399999999,"5959 Shellmound St, Emeryville, CA 94608",94608,https://offthegrid.com/,Emeryville
Off the Grid Justin Herman Plaza ,37.7935184,-122.39663020000002,"1 Market St , San Francisco, CA 94105",94105,https://offthegrid.com/,Embarcadero
Off the Grid Lake Merritt,37.798326,-122.26458400000001,"10th St & Oak St, Oakland, CA 94607",94607,https://offthegrid.com/,Oakland
Off the Grid Serramonte,37.672979,-122.46849099999999,"39 Serramonte Center, Daly City, CA 94015",94015,https://offthegrid.com/,Daly City
Off the Grid South Park,37.78118,-122.39290600000001,"340 Brannan St, San Francisco, CA 94107",94107,https://offthegrid.com/,Potrero Hill
Off the Grid South SF Lunch Pop-Up,37.654379999999996,-122.399252,"210 E Grand Ave, South San Francisco, CA 94080",94080,https://offthegrid.com/,Paradise Valley/South SF
Off the Grid Temescal ,37.833526,-122.263453,"4521 Telegraph Ave, Oakland, CA 94609",94609,https://offthegrid.com/,Oakland
Off the Grid UN Plaza,37.780482,-122.413177,"10 United Nations Plaza, San Francisco, CA 94102",94102,https://offthegrid.com/,Hayes
Off the Grid Vallejo & Front,37.799166,-122.39993799999999,"850 Front St, San Francisco, CA 94111",94111,https://offthegrid.com/,Embarcadero
Olea ,37.791019,-122.418901,"1494 California St, San Francisco, CA 94109",94109,https://www.yelp.com/biz/olea-san-francisco,Polk/Russian Hill (Nob Hill)
Outerlands,37.760285499999995,-122.50717350000001,"4001 Judah St, San Francisco, CA 94122",94122,http://outerlandssf.com,Sunset
Pacific Catch - Inner Sunset,37.765692,-122.46619199999999,"1200 9th Ave, San Francisco, CA 94122",94122,https://pacificcatch.com/locations/9th-avenue/,Sunset
Pacific Catch - Marina,37.800588,-122.43651100000001,"2027 Chestnut St, San Francisco, CA 94123",94123,http://pacificcatch.com,Marina
Palm House,37.7975533,-122.4329043,"2032 Union St, San Francisco, CA 94123",94123,https://www.palmhousesf.com/,Marina
Panera Bread,37.776176,-122.39408999999999,"301 King St, San Francisco, CA 94158",94158,https://www.panerabread.com/en-us/home.html,Mission Bay
Panta Rei Cafe Restaurant,37.798842,-122.40848799999999,"431 Columbus Ave, San Francisco, CA 94133",94133,http://www.pantareirestaurant.com/,North Beach/Chinatown
Park Chalet Coastal Beer Garden,37.769484999999996,-122.510178,"1000 Great Hwy, San Francisco, CA 94121",94121,http://www.parkchalet.com/,Outer Richmond
Pazzia,37.7833999,-122.3984217,"337 3rd St, San Francisco, CA 94107",94107,https://www.facebook.com/Pazzia-Restaurant-Pizzeria-58591771662,Potrero Hill
Perry's,37.797793,-122.431297,"1944 Union St, San Francisco, CA 94123",94123,http://perryssf.com/general-information/union-street/,Marina
Philz Coffee - Castro,37.76011,-122.43457,"549 Castro St, San Francisco, CA 94114",94114,http://www.philzcoffee.com/,Castro/Noe Valley
Philz Coffee - Embarcadero,37.794361,-122.39753030000001,"5 Embarcadero Center, San Francisco, CA 94111",94111,https://www.philzcoffee.com/,Embarcadero
Philz Coffee - Mission,37.7524855,-122.4140773,"3101 24th St, San Francisco, CA 94110",94110,http://www.philzcoffee.com/,Inner Mission/Bernal Heights
Philz Coffee - SoMa,37.775455,-122.39378700000002,"201 Berry St, San Francisco, CA 94158",94158,http://www.philzcoffee.com/,Mission Bay
Picante Cocina Mexicana,37.8786328,-122.3011094,"1328 6th St, Berkeley, CA 94710",94710,http://www.picanteberkeley.com/,Alameda
Picaro,37.765134,-122.42245700000001,"3120 16th St, San Francisco, CA 94103",94103,http://www.picarotapasrestaurant.com/,South of Market
Piccino,37.7578681,-122.3892561,"1001 Minnesota St, San Francisco, CA 94107",94107,http://www.piccinocafe.com/,Potrero Hill
Pieology Pizzeria ,37.668071999999995,-122.4670838,"309 Gellert Blvd, Daly City, CA 94015",94015,http://www.pieology.com/,Daly City
Pier 23 Cafe Restaurant & Bar,37.80337120000001,-122.4030857,"The Embarcadero, Pier 23, San Francisco, CA 94102",94102,http://pier23cafe.com/,Hayes
Pier 29 Restaurant,37.7668515,-122.28984950000002,"1148 Ballena Blvd, Alameda, CA 94501-3604",94501,http://www.pier29restaurant.com/,Alameda
Pier Market Seafood Restaurant ,37.809639000000004,-122.410248,"Pier 39, San Francisco, CA 94133",94133,https://piermarket.com/,North Beach/Chinatown
Pilsner Inn,37.76712,-122.42866799999999,"225 Church St, San Francisco, CA 94114",94114,http://www.pilsnerinn.com/,Castro/Noe Valley
Pizzeria Delfina - Downtown,37.78649,-122.40185,"688 Mission Street, San Francisco, CA  94105",94105,https://pizzeriadelfina.com/downtown/,Embarcadero
Pizzeria Delfina - Mission,37.761590000000005,-122.42478,"3611 18th Street, San Francisco, CA 94110",94110,http://pizzeriadelfina.com/mission/,Inner Mission/Bernal Heights
Pizzeria Delfina - Pacific Heights,37.78911,-122.43433,"2406 California Street, San Francisco, CA 94115",94115,http://pizzeriadelfina.com/pacific-heights/,Western Addition/Japantown
Pizzetta 211,37.78376,-122.48303100000001,"211 23rd Ave, San Francisco, CA 94121",94121,https://pizzetta211.com,Outer Richmond
Plouf,37.791676,-122.403746,"40 Belden Place, San Francisco, CA 94104",94104,http://www.ploufsf.com/,Chinatown
Plow ,37.76255,-122.39528," 1299 18th St, San Francisco, CA 94107",94107,https://www.eatatplow.com/,Potrero Hill
Poggio Trattoria,37.8570111,-122.4805494,"777 Bridgeway, Sausalito, CA 94965",94965,http://www.poggiotrattoria.com/,Sausalito/Marin County
Pomodoro,37.7514508,-122.4319008,"4000 24th St, San Francisco, CA 94114",94114,http://www.pastapomodoro.com/,Castro/Noe Valley
Prabh Indian Kitchen,37.905722,-122.54844540000002,"24 Sunnyside Ave, Mill Valley, CA 94941-1938",94941,http://www.prabhindiankitchen.com/,Mill Valley
Precita Park Cafe ,37.746976000000004,-122.410439,"500 Precita Ave, San Francisco, CA 94110",94110,http://www.precitaparkcafe.com/,Inner Mission/Bernal Heights
Quetzal Internet Cafe,37.788244399999996,-122.4201947,"1234 Polk St, San Francisco, CA 94109",94109,https://www.facebook.com/QuetzalCafeSF,Polk/Russian Hill (Nob Hill)
Railroad Expresso,37.731257899999996,-122.451334,"705 Monterey Blvd, San Francisco, CA 94127",94127,https://www.facebook.com/pages/Railroad-Expresso/112738765410975,St. Francis Wood/Miraloma/West Portal
Real Food Company,37.796537,-122.42159199999999,"2140 Polk St, San Francisco, CA 94109",94109,http://www.realfoodco.com/,Polk/Russian Hill (Nob Hill)
Red Dog Restaurant & Bar ,37.78529,-122.395569,"303 2nd St, San Francisco, CA 94107",94107,http://reddogrestaurant.com/us_main_page_section/home/,Potrero Hill
Red's Java House,37.7872148,-122.3874311,"Pier 30, San Francisco, CA 94105",94105,http://www.redsjavahouse.com/index2.php#/home/,Embarcadero
Ristorante Umbria,37.786775,-122.39864399999999,"198 2nd St, San Francisco, CA 94105",94105,http://www.ristoranteumbria.com/,Embarcadero
River City Brewing Company,37.7938735,-122.40213030000001,"545 Downtown Plaza #1115, Sacramento, CA 95814",95814,http://www.rivercitybrewing.net/,Sacramento
Roba's Pizza Cafe,37.8374041,-122.3042547,"2320 Powell St, Emeryville, CA 94608-1738",94608,http://www.robaspizza.com/,Emeryville
Roma Antica,37.7999,-122.4408,"3242 Scott St, San Francisco, CA 94123",94123,https://www.romasf.com/,Marina
Rooster & Rice - Castro,37.760851,-122.433651,"4039 18th St, San Francisco, CA 94114",94114,http://www.roosterandrice.com/,Castro/Noe Valley
Rosenblum Cellars,37.788624,-122.292627,"10 Clay St, Suite 1100 , Oakland, CA 94612",94612,http://www.rosenblumcellars.com/,Oakland
Rose's Cafe,37.79708,-122.43699699999999,"2298 Union St, San Francisco, CA 94123",94123,http://www.rosescafesf.com/,Marina
Rudy's Can't Fail Cafe,37.830960100000006,-122.2859933,"4081 Hollis St, Emeryville, CA 94608",94608,http://Iamrudy.com/,Emeryville
Sally’s Restaurant,37.765601000000004,-122.40211699999999,"300 De Haro St Ste 332, San Francisco, CA 94103",94103,https://www.yelp.com/biz/sallys-restaurant-san-francisco,South of Market
Sam's Log Cabin,37.888627,-122.298051,"945 San Pablo Ave, Albany, CA 94706",94706,http://www.samslogcabin.net/,Alameda
San Francisco Wine & Cheese ,37.774689,-122.422723,"141 Gough St, San Francisco, CA 94102",94102,http://countrycheesecoffee.com/,Hayes
Saucy Asian,37.762646000000004,-122.43088799999998,"3801 17th St, San Francisco, CA 94114",94114,https://www.saucyasian.com/,Castro/Noe Valley
Savor,37.751402,-122.43004099999999,"3913 24th St, San Francisco, CA 94114",94114,https://www.tripadvisor.com/Restaurant_Review-g60713-d368875-Reviews-Savor-San_Francisco_California.html,Castro/Noe Valley
Savor Open Kitchen ,37.751402,-122.43004099999999,"3913 24th St, San Francisco, CA 94114",94114,http://savoropenkitchen.com/,Castro/Noe Valley
Saylor's Restaurant And Bar,37.862138,-122.4952067,"2009 Bridgeway, Sausalito, CA 94965",94965,http://www.saylorsrestaurantandbar.com/,Sausalito/Marin County
Scullery,37.786425,-122.414593,"687 Geary St, San Francisco, CA 94102",94102,https://www.scullerysf.com/,Hayes
Sea Breeze Restaurant,37.76063,-122.50458,"3940 Judah St, San Francisco, CA 94122",94122,https://www.yelp.com/biz/sea-breeze-restaurant-san-francisco-2,Sunset
Seahorse,37.867148,-122.49926200000002,"305 Harbour Dr, Sausalito, CA 94965",94965,http://www.sausalitoseahorse.com,Sausalito/Marin County
Sessions at the Presidio,37.797829,-122.44936399999999,"1 Letterman Dr, San Francisco, CA 94129",94129,https://www.sessionssf.com/,Presidio
Seven Stills and Hard Frescos,37.756533600000004,-122.5019783,"3645 Lawton St, San Francisco, CA 94122",94122,https://sevenstillsofsf.com/pages/lawton-tap-room,Sunset
Seven Stills Brewery & Distillery,37.768599,-122.39921499999998,"100 Hooper St Ste. 4, San Francisco, CA 94107",94107,https://www.sevenstillsofsf.com/,Potrero Hill
Simple Pleasures Cafe ,37.77603,-122.495814,"3434 Balboa St, San Francisco, CA 94121",94121,https://www.yelp.com/biz/simple-pleasures-cafe-san-francisco,Outer Richmond
Sit & Stay Cafe,37.899113899999996,-122.3261705,"2701 Isabel St, Richmond, CA 94804",94804,http://www.kqzyfj.com/click-2591786-12525324?url=https%3A%2F%2Fwww.tripadvisor.com%2FRestaurant_Review-g60893-d4457628-Reviews-Sit_Stay_Cafe-Richmond_Virginia.html,Richmond (City)
Skool,37.76854,-122.40233,"1725 Alameda St, San Francisco, CA 94103",94103,http://skoolsf.com/,South of Market
Slingshot ,37.78177,-122.41687900000001,"422 Larkin St, San Francisco, CA 94102",94102,https://slinshot-cafe.business.site/?utm_source=gmb&utm_medium=referral,Hayes
Slurp Noodle Bar,37.761491,-122.434697,"469 Castro St #2019, San Francisco, CA 94114",94114,https://www.yelp.com/biz/slurp-noodle-bar-san-francisco,Castro/Noe Valley
Smoke Berkeley,37.862158799999996,-122.2922832,"2434 San Pablo Ave, Berkeley, CA 94702-2011",94702,http://smokeberkeley.com/,Berkeley
Sociale,37.787147,-122.45294399999999,"3665 Sacramento St, San Francisco, CA 94118",94118,http://www.caffesociale.com/,Inner Richmond
Solstice,37.797775,-122.431908,"1980 Union St, San Francisco, CA 94123",94123,https://solsticesf.com/wp-content/uploads/2019/11/SolsticeMenu10252019.pdf,Marina
SoMa StrEat Food Park,37.769769000000004,-122.412049,"428 11th St, San Francisco, CA 94103",94103,http://www.somastreatfoodpark.com/,South of Market
South Beach Cafe,37.8018512,-122.39975749999999,"800 The Embarcadero, San Francisco, CA 94107",94107,http://www.southbeachcafesf.com/,Potrero Hill
Southern Pacific Brewing,37.7600807,-122.4142267,"620 Treat Ave, San Francisco, CA 94110",94110,http://www.southernpacificbrewing.com/,Inner Mission/Bernal Heights
Sparrow Bar and Kitchen,37.769844,-122.449327,"1640 Haight St, San Francisco, CA 94117",94117,https://www.yelp.com/biz/sparrow-bar-and-kitchen-san-francisco,Haight-Ashbury
Spike's Coffees & Teas,37.759126,-122.43516799999999,"4117 19th St, San Francisco, CA 94114",94114,http://www.spikescoffee.com/,Castro/Noe Valley
Squat and Gobble Cafe,37.7642488,-122.4332405,"3600 16th St, San Francisco, CA 94114",94114,http://squatandgobble.com,Castro/Noe Valley
Stable Cafe,37.7632354,-122.41534070000002,"2128 Folsom St, San Francisco, CA 94110",94110,http://www.stablecafe.com/,Inner Mission/Bernal Heights
Stacks,37.776393,-122.424756,"501 Hayes St, San Francisco, CA 94102",94102,http://www.stacksrestaurant.com/,Hayes
Starbelly,37.764089500000004,-122.4347791,"3583 16th St, San Francisco, CA 94114",94114,http://www.starbellysf.com/?utm_source=yext&utm_medium=gmb,Castro/Noe Valley
Starbucks,37.667667,-122.46840700000001,"321 Gellert Blvd, Daly City, CA 94015-2613",94015,https://www.starbucks.com/,Daly City
Stella Nonna,37.8783674,-122.2970574,"1407 San Pablo Ave, Berkeley, CA 94702-1023",94702,http://www.stellanonna.com/,Berkeley
Super Duper Burgers,37.8958237,-122.53569850000001,"430 Miller Ave, Mill Valley, CA 94941",94941,http://superduperburgers.com/,Mill Valley
Surisan ,37.806779999999996,-122.41758,"505 Beach St, San Francisco, CA 94133",94133,https://www.surisansf.com/,North Beach/Chinatown
Suzette Crepe Cafe,37.8903379,-122.2972287,"1226 Solano Ave, Albany, CA 94706-1737",94706,http://suzettecrepecafe.weebly.com/,Alameda
Sweet Ginger,37.8600195,-122.4879374,"400 Caledonia St, Sausalito, CA 94965",94965,http://www.sweetgingersausalito.com/,Sausalito/Marin County
Tacolicious,37.8004125,-122.44047250000001,"2250 Chestnut St, San Francisco, CA 94123",94123,http://tacolicious.com/,Marina
Tanguito,37.80735,-84.63065,"2850 Jones St, San Francisco, CA 94133",94133,https://www.yelp.com/biz/tanguito-san-francisco,North Beach/Chinatown
Tartine Bakery & Cafe - Inner Sunset,37.765361999999996,-122.466074,"1226 9th Ave, San Francisco, CA 94122",94122,https://www.tartinebakery.com/san-francisco/inner-sunset,Sunset
Tartine Bakery & Cafe - Mission,37.761543599999996,-122.42387679999999,"600 Guerrero St, San Francisco, CA 94110",94110,http://www.tartinebakery.com/,Inner Mission/Bernal Heights
Tempest,37.781227,-122.406273,"431 Natoma St, San Francisco, CA 94103",94103,http://www.pourguys.com/tempest-bar,South of Market
Teriyaki House,37.6852985,-122.402348,"114 Old County Rd, Brisbane, CA 94005-1308",94005,http://www.teriyaki-house.com/,Daly City
Thanh Thanh Cafe,37.781851,-122.482906,"2205 Clement St, San Francisco, CA 94121",94121,https://www.yelp.com/biz/thanh-thanh-cafe-san-francisco,Outer Richmond
The Albatross Pub,37.870706,-122.293066,"1822 San Pablo Ave, Berkeley, CA 94702",94702,http://www.albatrosspub.com/,Berkeley
The Atlas Cafe,37.758862,-122.411406,"3049 20th St, San Francisco, CA 94110",94110,http://www.atlascafe.net/,Inner Mission/Bernal Heights
The Black Horse London Pub,37.7985281,-122.4243298,"1514 Union St, San Francisco, CA 94123",94123,http://www.blackhorselondon.com/,Marina
The Buccaneer,37.796633,-122.422203,"2155 Polk St, San Francisco, CA 94109",94109,https://www.facebook.com/pages/The-Buccaneer/111604772200658,Polk/Russian Hill (Nob Hill)
The Cantina,37.9011946,-122.52784890000001,"651 E Blithedale Ave, Mill Valley, CA 94941",94941,http://www.thecantina.com/,Mill Valley
The Codmother Fish & Chips ,37.80704,-122.41698999999998,"496 Beach St, San Francisco, CA 94133",94133,https://www.codmother.com/,North Beach/Chinatown
The Curbside Cafe,37.7888514,-122.4341221,"2417 California St, San Francisco, CA 94115",94115,http://www.sfcurbside.com/,Western Addition/Japantown
The Front Porch,37.743809999999996,-122.42200000000001,"65 29th St, San Francisco, CA 94110",94110,http://thefrontporchsf.com/,Inner Mission/Bernal Heights
The Grove - Fillmore,37.788218,-122.433477,"2016 Fillmore St, San Francisco, CA 94115",94115,https://thegrovesf.com/menus/,Western Addition/Japantown
The Homestead,37.7604,-122.41452,"2301 Folsom St, San Francisco, CA 94110",94110,http://www.homesteadsf.com/,Inner Mission/Bernal Heights
The Irish Bank ,37.790480200000005,-122.40468429999999,"10 Mark Ln, San Francisco, CA 94108",94108,http://www.theirishbank.com,Chinatown
The Junket European Cafe and Delicatessen,37.899005200000005,-122.3011899,"235 El Cerrito Plaza, El Cerrito, CA 94530",94530,https://www.thejunket.com/,Richmond (City)
The Mill,37.7764698,-122.43775649999999,"736 Divisadero St., San Francisco, CA 94117",94117,http://www.themillsf.com/,Haight-Ashbury
The New Spot On Polk,37.798926,-122.422547,"2401 Polk St, San Francisco, CA 94109",94109,https://thenewspotonpolk.com/,Polk/Russian Hill (Nob Hill)
The Pour House,37.7891098,-122.42035420000002,"1327 Polk St, San Francisco, CA 94109",94109,http://sfpourhouse.com/,Polk/Russian Hill (Nob Hill)
The Ramp,37.76488,-122.38693,"855 Terry A Francois Blvd, San Francisco, CA 94158",94158,http://www.rampsf.com/,Mission Bay
The Richfield ,37.784982,-122.463673,"195 5th Ave, San Francisco, CA 94118",94118,https://www.yelp.com/biz/the-richfield-san-francisco,Inner Richmond
The Sunny Side Cafe,37.891009999999994,-122.28748799999998,"1499 Solano Ave, Albany, CA 94706",94706,http://www.thesunnysidecafe.com/,Alameda
The Sycamore,37.76278,-122.41965," 2140 Mission St, San Francisco, CA 94110",94110,http://www.thesycamoresf.com/,Inner Mission/Bernal Heights
Thinkers Cafe,37.759933600000004,-122.3975473,"1631 20th St, San Francisco, CA 94107",94107,http://www.thinkerscafe.com/,Potrero Hill
Toast Eatery - Noe Valley,37.742987,-122.42688600000001,"1748 Church St, San Francisco, CA 94131",94131,http://www.toasteatery.com/,Twin Peaks/Glen Park
Toasty ,37.797616,-122.42863899999999,"2760 Octavia St, San Francisco, CA 94123",94123,https://www.toastysf.com/,Marina
Toma ,37.800033,-122.43755900000001,"3318 Steiner St, San Francisco, CA 94123",94123,https://www.tomasf.com/,Marina
Tomate Cafe,37.863729600000006,-122.29749199999999,"2265 5th St, Berkeley, CA 94710",94710,http://www.tomatecafe.com/,Alameda
Tommy's Wok Chinese Cuisine,37.869608899999996,-122.50363700000001,"3001 Bridgeway Ste H, Sausalito, CA 94965",94965,http://www.tommyswok.com/,Sausalito/Marin County
Toronado,37.7718304,-122.4311305,"547 Haight St, San Francisco, CA 94117",94117,http://toronado.com,Haight-Ashbury
Town's End Restaurant & Bakery,37.781586,-122.39012,"2 Townsend St, San Francisco, CA 94107",94107,http://www.townsendrb.com/,Potrero Hill
Trademark ,37.776089,-122.40824099999999,"1123 Folsom St, San Francisco, CA 94103",94103,https://www.yelp.com/biz/trademark-san-francisco-4,South of Market
Trattoria da Vittorio,37.739339,-122.46775,"150 W Portal Ave, San Francisco, CA 94127",94127,https://www.trattoriadavittorio.com/,St. Francis Wood/Miraloma/West Portal
Trattoria Pinocchio,37.798842,-122.40848799999999,"401 Columbus Ave, San Francisco, CA 94133",94133,http://www.trattoriapinocchio.com/,North Beach/Chinatown
T-Rex Barbecue,37.88004,-122.297149,"1300 10th St, Berkeley, CA 94710",94710,http://www.t-rex-bbq.com/,Alameda
Triple Voodoo Brewery & Tap Room,37.7612156,-122.38853770000001,"2245 3rd St, San Francisco, CA 94107",94107,http://www.triplevoodoo.com/,Potrero Hill
Trou Normand,37.7866839,-122.39988319999999,"140 New Montgomery St, San Francisco, CA 94105",94105,http://www.trounormandsf.com/,Embarcadero
Umami Burger ,37.777262,-122.39345700000001,"242 King St, San Francisco, CA 94107",94107,http://burgerjointsf.com/,Potrero Hill
Underdog Hot Dog & Sausage,37.763789,-122.47569299999999,"1634 Irving St, San Francisco, CA 94122",94122,http://underdogorganic.com/,Sunset
Universal Cafe,37.76063,-122.41065,"2814 19th St, San Francisco, CA 94110",94110,https://universalcafe.net/,Inner Mission/Bernal Heights
Velo Rouge Cafe,37.775365,-122.458359,"798 Arguello Blvd, San Francisco, CA 94118",94118,http://www.velorougecafe.com,Inner Richmond
Waterbar,37.7900429,-122.3886065,"399 The Embarcadero, San Francisco, CA 94105",94105,https://www.waterbarsf.com/,Embarcadero
Westbrae Biergarten,37.88152,-122.29047820000001,"1280 Gilman St, Berkeley, CA 94706",94706,http://www.westbraebiergarten.com/,Alameda
What The Cluck - Haight/Ashbury,37.7695304,-122.45157749999998,"1782 Haight St, San Francisco, CA 94117",94117,https://www.whatthecluckus.com/menu,Haight-Ashbury
Whiz Burgers Drive-In,37.761721,-122.41751200000002,"700 S Van Ness Ave, San Francisco, CA 94110",94110,https://www.yelp.com/biz/whiz-burgers-drive-in-san-francisco,Inner Mission/Bernal Heights
Wipeout Bar & Grill,37.8089902,-122.41243870000001,"PIER 39 A-O2, San Francisco, CA 94133",94133,https://wipeoutbarandgrill.com/,North Beach/Chinatown
Zazie,37.7652951,-122.4501297,"941 Cole St, San Francisco, CA 94117",94117,http://www.zaziesf.com,Haight-Ashbury
Zuni Cafe,37.773614,-122.42156899999999,"1658 Market St, San Francisco, CA 94102",94102,http://www.zunicafe.com/,Hayes
Zut! Tavern,37.8697253,-122.30071809999998,"1820 Fourth St, Berkeley, CA 94710-1911",94710,http://www.zutonfourth.com/,Alameda
